start=new Date('2021-09-07T00:00:00.000Z').valueOf();
sats=[{"MEAN_MOTION_DOT":"-0.00001146","CENTER_NAME":"EARTH","PERIAPSIS":"546.390","OBJECT_NAME":"STARLINK-1240","INCLINATION":"53.0540","MEAN_ELEMENT_THEORY":"SGP4","ECCENTRICITY":"0.00012120","GP_ID":"184222692","LAUNCH_DATE":"2020-02-17","EPOCH":"2021-09-06T16:34:20.763840","SEMIMAJOR_AXIS":"6925.364","REV_AT_EPOCH":"8679","RA_OF_ASC_NODE":"231.3102","MEAN_MOTION":"15.06394881","DECAY_DATE":null,"EPHEMERIS_TYPE":"0","TLE_LINE1":"1 45194U 20012S   21249.69051810 -.00001146  00000-0 -58083-4 0  9998","APOAPSIS":"548.069","COUNTRY_CODE":"US","TLE_LINE2":"2 45194  53.0540 231.3102 0001212  50.5299 309.5797 15.06394881 86795","ARG_OF_PERICENTER":"50.5299","ELEMENT_SET_NO":"999","NORAD_CAT_ID":"45194","TIME_SYSTEM":"UTC","OBJECT_TYPE":"PAYLOAD","RCS_SIZE":"LARGE","MEAN_MOTION_DDOT":"0.0000000000000","REF_FRAME":"TEME","CLASSIFICATION_TYPE":"U","PERIOD":"95.592","SITE":"AFETR","OBJECT_ID":"2020-012S","BSTAR":"-0.00005808300000","MEAN_ANOMALY":"309.5797","FILE":"3109923"},{"INCLINATION":"53.0531","MEAN_ELEMENT_THEORY":"SGP4","GP_ID":"184223442","ECCENTRICITY":"0.00011160","MEAN_MOTION_DOT":"0.00000995","OBJECT_NAME":"STARLINK-1241","PERIAPSIS":"546.456","CENTER_NAME":"EARTH","SEMIMAJOR_AXIS":"6925.364","EPOCH":"2021-09-06T16:23:44.619648","MEAN_MOTION":"15.06395113","RA_OF_ASC_NODE":"231.3500","REV_AT_EPOCH":"8689","DECAY_DATE":null,"LAUNCH_DATE":"2020-02-17","ELEMENT_SET_NO":"999","ARG_OF_PERICENTER":"69.2672","TLE_LINE2":"2 45195  53.0531 231.3500 0001116  69.2672 290.8436 15.06395113 86895","NORAD_CAT_ID":"45195","EPHEMERIS_TYPE":"0","TLE_LINE1":"1 45195U 20012T   21249.68315532  .00000995  00000-0  85714-4 0  9992","APOAPSIS":"548.001","COUNTRY_CODE":"US","OBJECT_ID":"2020-012T","SITE":"AFETR","MEAN_ANOMALY":"290.8436","BSTAR":"0.00008571400000","FILE":"3109923","TIME_SYSTEM":"UTC","OBJECT_TYPE":"PAYLOAD","RCS_SIZE":"LARGE","MEAN_MOTION_DDOT":"0.0000000000000","REF_FRAME":"TEME","CLASSIFICATION_TYPE":"U","PERIOD":"95.592"},{"NORAD_CAT_ID":"45196","TLE_LINE2":"2 45196  53.0526 231.3970 0001101  57.1653 302.9442 15.06396499 86946","ARG_OF_PERICENTER":"57.1653","ELEMENT_SET_NO":"999","COUNTRY_CODE":"US","APOAPSIS":"547.987","EPHEMERIS_TYPE":"0","TLE_LINE1":"1 45196U 20012U   21249.67209172  .00000951  00000-0  82706-4 0  9994","FILE":"3109923","BSTAR":"0.00008270600000","MEAN_ANOMALY":"302.9442","SITE":"AFETR","OBJECT_ID":"2020-012U","PERIOD":"95.592","CLASSIFICATION_TYPE":"U","REF_FRAME":"TEME","RCS_SIZE":"LARGE","MEAN_MOTION_DDOT":"0.0000000000000","OBJECT_TYPE":"PAYLOAD","TIME_SYSTEM":"UTC","ECCENTRICITY":"0.00011010","GP_ID":"184223694","MEAN_ELEMENT_THEORY":"SGP4","INCLINATION":"53.0526","PERIAPSIS":"546.462","CENTER_NAME":"EARTH","OBJECT_NAME":"STARLINK-1244","MEAN_MOTION_DOT":"0.00000951","DECAY_DATE":null,"REV_AT_EPOCH":"8694","RA_OF_ASC_NODE":"231.3970","MEAN_MOTION":"15.06396499","EPOCH":"2021-09-06T16:07:48.724608","SEMIMAJOR_AXIS":"6925.359","LAUNCH_DATE":"2020-02-17"},{"LAUNCH_DATE":"2020-02-17","SEMIMAJOR_AXIS":"6925.331","EPOCH":"2021-09-06T22:14:02.327712","MEAN_MOTION":"15.06405832","REV_AT_EPOCH":"8690","RA_OF_ASC_NODE":"230.2477","DECAY_DATE":null,"MEAN_MOTION_DOT":"0.00001254","OBJECT_NAME":"STARLINK-1269","CENTER_NAME":"EARTH","PERIAPSIS":"546.325","INCLINATION":"53.0537","MEAN_ELEMENT_THEORY":"SGP4","GP_ID":"184224444","ECCENTRICITY":"0.00012570","TIME_SYSTEM":"UTC","OBJECT_TYPE":"PAYLOAD","MEAN_MOTION_DDOT":"0.0000000000000","RCS_SIZE":"LARGE","REF_FRAME":"TEME","PERIOD":"95.592","CLASSIFICATION_TYPE":"U","OBJECT_ID":"2020-012V","SITE":"AFETR","MEAN_ANOMALY":"292.8628","BSTAR":"0.00010303000000","FILE":"3109923","TLE_LINE1":"1 45197U 20012V   21249.92641583  .00001254  00000-0  10303-3 0  9999","EPHEMERIS_TYPE":"0","APOAPSIS":"548.066","COUNTRY_CODE":"US","ELEMENT_SET_NO":"999","ARG_OF_PERICENTER":"67.2494","TLE_LINE2":"2 45197  53.0537 230.2477 0001257  67.2494 292.8628 15.06405832 86907","NORAD_CAT_ID":"45197"},{"REV_AT_EPOCH":"8714","RA_OF_ASC_NODE":"210.5986","MEAN_MOTION":"15.06400089","EPOCH":"2021-09-06T20:25:13.580832","SEMIMAJOR_AXIS":"6925.348","DECAY_DATE":null,"LAUNCH_DATE":"2020-02-17","MEAN_ELEMENT_THEORY":"SGP4","INCLINATION":"53.0548","ECCENTRICITY":"0.00014070","GP_ID":"184223192","MEAN_MOTION_DOT":"0.00000849","PERIAPSIS":"546.239","CENTER_NAME":"EARTH","OBJECT_NAME":"STARLINK-1154","BSTAR":"0.00007586600000","MEAN_ANOMALY":"313.7080","SITE":"AFETR","OBJECT_ID":"2020-012W","FILE":"3109923","MEAN_MOTION_DDOT":"0.0000000000000","RCS_SIZE":"LARGE","OBJECT_TYPE":"PAYLOAD","TIME_SYSTEM":"UTC","CLASSIFICATION_TYPE":"U","PERIOD":"95.592","REF_FRAME":"TEME","TLE_LINE2":"2 45198  53.0548 210.5986 0001407  46.4025 313.7080 15.06400089 87143","ARG_OF_PERICENTER":"46.4025","ELEMENT_SET_NO":"999","NORAD_CAT_ID":"45198","TLE_LINE1":"1 45198U 20012W   21249.85085163  .00000849  00000-0  75866-4 0  9993","EPHEMERIS_TYPE":"0","COUNTRY_CODE":"US","APOAPSIS":"548.188"},{"FILE":"3109923","SITE":"AFETR","OBJECT_ID":"2020-012X","BSTAR":"0.00208820000000","MEAN_ANOMALY":"287.9367","REF_FRAME":"TEME","CLASSIFICATION_TYPE":"U","PERIOD":"95.602","OBJECT_TYPE":"PAYLOAD","TIME_SYSTEM":"UTC","MEAN_MOTION_DDOT":"0.0000000000000","RCS_SIZE":"LARGE","NORAD_CAT_ID":"45199","ARG_OF_PERICENTER":"72.1701","TLE_LINE2":"2 45199  53.0544 210.5837 0000723  72.1701 287.9367 15.06246917 87207","ELEMENT_SET_NO":"999","APOAPSIS":"548.184","COUNTRY_CODE":"US","EPHEMERIS_TYPE":"0","TLE_LINE1":"1 45199U 20012X   21249.85456491  .00030830  00000-0  20882-2 0  9999","DECAY_DATE":null,"EPOCH":"2021-09-06T20:30:34.408224","SEMIMAJOR_AXIS":"6925.818","REV_AT_EPOCH":"8720","RA_OF_ASC_NODE":"210.5837","MEAN_MOTION":"15.06246917","LAUNCH_DATE":"2020-02-17","ECCENTRICITY":"0.00007230","GP_ID":"184222943","INCLINATION":"53.0544","MEAN_ELEMENT_THEORY":"SGP4","PERIAPSIS":"547.182","CENTER_NAME":"EARTH","OBJECT_NAME":"STARLINK-1197","MEAN_MOTION_DOT":"0.00030830"},{"LAUNCH_DATE":"2020-02-17","SEMIMAJOR_AXIS":"6925.335","EPOCH":"2021-09-06T14:18:59.004000","MEAN_MOTION":"15.06404497","REV_AT_EPOCH":"8716","RA_OF_ASC_NODE":"211.7362","DECAY_DATE":null,"MEAN_MOTION_DOT":"0.00001026","OBJECT_NAME":"STARLINK-1199","CENTER_NAME":"EARTH","PERIAPSIS":"546.218","INCLINATION":"53.0546","MEAN_ELEMENT_THEORY":"SGP4","GP_ID":"184224194","ECCENTRICITY":"0.00014170","TIME_SYSTEM":"UTC","OBJECT_TYPE":"PAYLOAD","RCS_SIZE":"LARGE","MEAN_MOTION_DDOT":"0.0000000000000","REF_FRAME":"TEME","CLASSIFICATION_TYPE":"U","PERIOD":"95.592","OBJECT_ID":"2020-012Z","SITE":"AFETR","MEAN_ANOMALY":"308.7036","BSTAR":"0.00008773800000","FILE":"3109923","TLE_LINE1":"1 45201U 20012Z   21249.59651625  .00001026  00000-0  87738-4 0  9990","EPHEMERIS_TYPE":"0","APOAPSIS":"548.181","COUNTRY_CODE":"US","ELEMENT_SET_NO":"999","TLE_LINE2":"2 45201  53.0546 211.7362 0001417  51.4080 308.7036 15.06404497 87169","ARG_OF_PERICENTER":"51.4080","NORAD_CAT_ID":"45201"},{"TLE_LINE1":"1 45202U 20012AA  21249.65769210  .00003215  00000-0  22536-3 0  9994","EPHEMERIS_TYPE":"0","APOAPSIS":"543.590","COUNTRY_CODE":"US","TLE_LINE2":"2 45202  52.9810 227.3711 0001534  69.1512 290.9641 15.07929854 86959","ARG_OF_PERICENTER":"69.1512","ELEMENT_SET_NO":"999","NORAD_CAT_ID":"45202","OBJECT_TYPE":"PAYLOAD","TIME_SYSTEM":"UTC","RCS_SIZE":"LARGE","MEAN_MOTION_DDOT":"0.0000000000000","REF_FRAME":"TEME","CLASSIFICATION_TYPE":"U","PERIOD":"95.495","SITE":"AFETR","OBJECT_ID":"2020-012AA","BSTAR":"0.00022536000000","MEAN_ANOMALY":"290.9641","FILE":"3109923","MEAN_MOTION_DOT":"0.00003215","PERIAPSIS":"541.467","CENTER_NAME":"EARTH","OBJECT_NAME":"STARLINK-1203","INCLINATION":"52.9810","MEAN_ELEMENT_THEORY":"SGP4","ECCENTRICITY":"0.00015340","GP_ID":"184223945","LAUNCH_DATE":"2020-02-17","EPOCH":"2021-09-06T15:47:04.597440","SEMIMAJOR_AXIS":"6920.664","REV_AT_EPOCH":"8695","RA_OF_ASC_NODE":"227.3711","MEAN_MOTION":"15.07929854","DECAY_DATE":null},{"COUNTRY_CODE":"US","APOAPSIS":"493.371","TLE_LINE1":"1 45203U 20012AB  21249.87732579  .00312483  00000-0  12025-1 0  9997","EPHEMERIS_TYPE":"0","NORAD_CAT_ID":"45203","TLE_LINE2":"2 45203  53.0006 207.0076 0001691 111.9089 248.2087 15.24526510 87173","ARG_OF_PERICENTER":"111.9089","ELEMENT_SET_NO":"999","CLASSIFICATION_TYPE":"U","PERIOD":"94.456","REF_FRAME":"TEME","RCS_SIZE":"LARGE","MEAN_MOTION_DDOT":"0.0000000000000","TIME_SYSTEM":"UTC","OBJECT_TYPE":"PAYLOAD","FILE":"3109923","BSTAR":"0.01202500000000","MEAN_ANOMALY":"248.2087","SITE":"AFETR","OBJECT_ID":"2020-012AB","CENTER_NAME":"EARTH","PERIAPSIS":"491.048","OBJECT_NAME":"STARLINK-1204","MEAN_MOTION_DOT":"0.00312483","ECCENTRICITY":"0.00016910","GP_ID":"184222693","MEAN_ELEMENT_THEORY":"SGP4","INCLINATION":"53.0006","LAUNCH_DATE":"2020-02-17","DECAY_DATE":null,"REV_AT_EPOCH":"8717","RA_OF_ASC_NODE":"207.0076","MEAN_MOTION":"15.24526510","EPOCH":"2021-09-06T21:03:20.948256","SEMIMAJOR_AXIS":"6870.345"},{"APOAPSIS":"548.282","COUNTRY_CODE":"US","EPHEMERIS_TYPE":"0","TLE_LINE1":"1 45204U 20012AC  21249.88771749  .00000745  00000-0  68922-4 0  9996","NORAD_CAT_ID":"45204","TLE_LINE2":"2 45204  53.0534 210.4158 0001532  60.0339 300.0802 15.06397640 87223","ARG_OF_PERICENTER":"60.0339","ELEMENT_SET_NO":"999","REF_FRAME":"TEME","CLASSIFICATION_TYPE":"U","PERIOD":"95.592","OBJECT_TYPE":"PAYLOAD","TIME_SYSTEM":"UTC","RCS_SIZE":"LARGE","MEAN_MOTION_DDOT":"0.0000000000000","FILE":"3109923","SITE":"AFETR","OBJECT_ID":"2020-012AC","BSTAR":"0.00006892200000","MEAN_ANOMALY":"300.0802","PERIAPSIS":"546.160","CENTER_NAME":"EARTH","OBJECT_NAME":"STARLINK-1206","MEAN_MOTION_DOT":"0.00000745","ECCENTRICITY":"0.00015320","GP_ID":"184223443","INCLINATION":"53.0534","MEAN_ELEMENT_THEORY":"SGP4","LAUNCH_DATE":"2020-02-17","DECAY_DATE":null,"EPOCH":"2021-09-06T21:18:18.791136","SEMIMAJOR_AXIS":"6925.356","RA_OF_ASC_NODE":"210.4158","REV_AT_EPOCH":"8722","MEAN_MOTION":"15.06397640"}];
